[
    {
        "CCSDS_OMM_VERS": "3.0",
        "COMMENT": "GENERATED VIA SPACE-TRACK.ORG API",
        "CREATION_DATE": "2025-05-03T17:28:03",
        "ORIGINATOR": "18 SPCS",
        "OBJECT_NAME": "GALILEO 25 (2C1)",
        "OBJECT_ID": "2018-060A",
        "CENTER_NAME": "EARTH",
        "REF_FRAME": "TEME",
        "TIME_SYSTEM": "UTC",
        "MEAN_ELEMENT_THEORY": "SGP4",
        "EPOCH": "2025-05-03T01:00:49.639680",
        "MEAN_MOTION": "1.70475659",
        "ECCENTRICITY": "0.00036480",
        "INCLINATION": "57.2754",
        "RA_OF_ASC_NODE": "352.8495",
        "ARG_OF_PERICENTER": "316.1162",
        "MEAN_ANOMALY": "43.8940",
        "EPHEMERIS_TYPE": "0",
        "CLASSIFICATION_TYPE": "U",
        "NORAD_CAT_ID": "43564",
        "ELEMENT_SET_NO": "999",
        "REV_AT_EPOCH": "4217",
        "BSTAR": "0.00000000000000",
        "MEAN_MOTION_DOT": "-0.00000100",
        "MEAN_MOTION_DDOT": "0.0000000000000",
        "SEMIMAJOR_AXIS": "29600.128",
        "PERIOD": "844.695",
        "APOAPSIS": "23232.791",
        "PERIAPSIS": "23211.195",
        "OBJECT_TYPE": "PAYLOAD",
        "RCS_SIZE": "LARGE",
        "COUNTRY_CODE": "ESA",
        "LAUNCH_DATE": "2018-07-25",
        "SITE": "FRGUI",
        "DECAY_DATE": null,
        "FILE": "4717971",
        "GP_ID": "286762553",
        "TLE_LINE0": "0 GALILEO 25 (2C1)",
        "TLE_LINE1": "1 43564U 18060A   25123.04224120 -.00000100  00000-0  00000-0 0  9997",
        "TLE_LINE2": "2 43564  57.2754 352.8495 0003648 316.1162  43.8940  1.70475659 42177"
    }
]